[{"OBJECT_NAME":"STARLINK-34210","OBJECT_ID":"2025-211B","EPOCH":"2026-03-09T17:16:04.010304","MEAN_MOTION":15.05646869,"ECCENTRICITY":0.00013476,"INCLINATION":97.6026,"RA_OF_ASC_NODE":114.0515,"ARG_OF_PERICENTER":102.4325,"MEAN_ANOMALY":257.7053,"EPHEMERIS_TYPE":0,"CLASSIFICATION_TYPE":"U","NORAD_CAT_ID":65653,"ELEMENT_SET_NO":999,"REV_AT_EPOCH":2704,"BSTAR":0.00014724666,"MEAN_MOTION_DOT":2.064e-5,"MEAN_MOTION_DDOT":0},{"OBJECT_NAME":"PEGASUS DEB","OBJECT_ID":"1994-029ZE","EPOCH":"2026-03-08T13:49:14.638368","MEAN_MOTION":13.44629817,"ECCENTRICITY":0.07289068,"INCLINATION":81.5203,"RA_OF_ASC_NODE":278.2553,"ARG_OF_PERICENTER":266.581,"MEAN_ANOMALY":85.1759,"EPHEMERIS_TYPE":0,"CLASSIFICATION_TYPE":"U","NORAD_CAT_ID":24602,"ELEMENT_SET_NO":999,"REV_AT_EPOCH":43194,"BSTAR":0.00096331603,"MEAN_MOTION_DOT":2.96e-5,"MEAN_MOTION_DDOT":0}]
